SES-1                   
1 36516U 10016A   26158.46816235 -.00000100  00000+0  00000+0 0  9996
2 36516   0.0169 316.1077 0002833 121.8226 245.4887  1.00271962 58933
ASTRA 3B                
1 36581U 10021A   26158.27898719  .00000152  00000+0  00000+0 0  9996
2 36581   1.4451  83.6724 0004457 350.9397 304.9971  1.00273786 58769
COMSATBW-2              
1 36582U 10021B   26158.27690718  .00000102  00000+0  00000+0 0  9991
2 36582   0.0189  27.0090 0002760  62.4732 279.0967  1.00269737 58852
BEIDOU-2 G3             
1 36590U 10024A   26158.36140079 -.00000122  00000+0  00000+0 0  9996
2 36590   4.4919  61.5565 0008492 350.4920  53.5210  1.00273080 58679
BADR-5                  
1 36592U 10025A   26158.28037387  .00000168  00000+0  00000+0 0  9996
2 36592   0.0612 116.8842 0003400  64.1575 206.1241  1.00277778 53116
COMS 1                  
1 36744U 10032A   26154.99142485 -.00000334  00000+0  00000+0 0  9999
2 36744   4.7750  75.5286 0001016   4.5847 297.3769  1.00270643 50953
ARABSAT-5A              
1 36745U 10032B   26158.28028720  .00000168  00000+0  00000+0 0  9995
2 36745   0.0706  50.6633 0005444  46.6218 289.7936  1.00269181 58541
ECHOSTAR 15             
1 36792U 10034A   26158.46460902  .00000014  00000+0  00000+0 0  9991
2 36792   0.0087   4.8549 0001864  71.0372 228.4233  1.00271636 58220
BEIDOU-2 IGSO-1         
1 36828U 10036A   26158.43838410 -.00000047  00000+0  00000+0 0  9990
2 36828  54.3007 163.0477 0059187 225.1050 133.1630  1.00275489 57994
NILESAT 201             
1 36830U 10037A   26158.34419850 -.00000043  00000+0  00000+0 0  9993
2 36830   0.0161 153.0874 0004442 312.5706 267.0130  1.00272069 58274
RASCOM-QAF 1R           
1 36831U 10037B   26158.34619183  .00000033  00000+0  00000+0 0  9993
2 36831   0.0130 111.7563 0006741 326.9774 304.5513  1.00270318 58205
AEHF-1 (USA 214)        
1 36868U 10039A   26157.92374317  .00000160  00000+0  00000+0 0  9996
2 36868   8.1929  68.1805 0004151   3.9297 185.7061  1.00270215 53555
XM-5                    
1 37185U 10053A   26158.39412176 -.00000008  00000+0  00000+0 0  9995
2 37185   0.0653 273.2387 0002975 279.8470  89.4090  1.00269379 57382
BSAT-3B                 
1 37207U 10056B   26158.43864410 -.00000336  00000+0  00000+0 0  9994
2 37207   0.0523 237.6969 0001311 304.2532 341.6587  1.00273197 52009
BEIDOU-2 G4             
1 37210U 10057A   26158.51433499 -.00000098  00000+0  00000+0 0  9992
2 37210   3.6223  69.0031 0004804 201.6695 330.4228  1.00272171 57190
SKYTERRA 1              
1 37218U 10061A   26158.32544597 -.00000105  00000+0  00000+0 0  9995
2 37218   5.1035  50.8594 0002816  20.5142 200.1941  1.00270959 57090
HYLAS 1                 
1 37237U 10065A   26158.07336352  .00000103  00000+0  00000+0 0  9997
2 37237   5.6170  73.1419 0001125 315.9463 266.6070  1.00272357  6783
INTELSAT 17 (IS-17)     
1 37238U 10065B   26158.35858522  .00000013  00000+0  00000+0 0  9997
2 37238   0.0035 326.3974 0002448 116.2071   8.2423  1.00272296 53155
BEIDOU-2 IGSO-2         
1 37256U 10068A   26157.74761939 -.00000212  00000+0  00000+0 0  9999
2 37256  47.5684 271.9632 0054983 212.5902 147.2585  1.00287050 56690
EUTELSAT KA-SAT 9A      
1 37258U 10069A   26158.34740519  .00000076  00000+0  00000+0 0  9997
2 37258   0.0609  10.6072 0003927 116.9409 262.2703  1.00269066 43907
HISPASAT 30W-5          
1 37264U 10070A   26158.42683420 -.00000201  00000+0  00000+0 0  9993
2 37264   0.0613 106.2390 0005201 352.4195 280.8501  1.00270647 53089
KOREASAT 6              
1 37265U 10070B   26158.45739162 -.00000097  00000+0  00000+0 0  9995
2 37265   0.0279  74.1411 0002297   8.9588 137.3159  1.00271759 56674
BEIDOU-2 IGSO-3         
1 37384U 11013A   26155.63444529 -.00000179  00000+0  00000+0 0  9993
2 37384  62.3902  40.2715 0034446 185.4993   3.7397  1.00271497 55536
INTELSAT 28 (IS-28)     
1 37392U 11016A   26158.43277529 -.00000210  00000+0  00000+0 0  9996
2 37392   1.7801  82.7441 0003939 353.9005 303.2941  1.00269060 53181
YAHSAT 1A               
1 37393U 11016B   26158.21341000  .00000000  00000+0  00000+0 0  9995
2 37393   0.0157 327.7988 0002975 121.6939 295.4523  1.00268533 42305
SBIRS GEO-1 (USA 230)   
1 37481U 11019A   26158.00939545  .00000113  00000+0  00000+0 0  9995
2 37481   4.5147  53.1313 0002128  13.0940 244.3704  1.00272448 55295
TELSTAR 14R             
1 37602U 11021A   26158.47570241 -.00000265  00000+0  00000+0 0  9997
2 37602   0.0149  47.1902 0002436  17.8107 299.1397  1.00271810 55736
GSAT-8                  
1 37605U 11022A   26158.21393000  .00000099  00000+0  00000+0 0  9993
2 37605   2.1044  81.9456 0002207 213.0361  92.7290  1.00270799 53118
ST-2                    
1 37606U 11022B   26158.43431074 -.00000197  00000+0  00000+0 0  9992
2 37606   0.0166  60.6158 0001851  31.4120  48.1889  1.00271146 55188
ZHONGXING-10            
1 37677U 11026A   26158.50517878 -.00000174  00000+0  00000+0 0  9994
2 37677   1.0212  84.3137 0003681 356.7275  82.2730  1.00271145 54908
SES-3                   
1 37748U 11035A   26158.39646177 -.00000087  00000+0  00000+0 0  9998
2 37748   1.3006  83.1967 0002735 348.3227 224.0057  1.00271143 54492
KAZSAT-2                
1 37749U 11035B   26158.43405074 -.00000183  00000+0  00000+0 0  9990
2 37749   0.0356 246.0632 0001282 255.3594 357.1868  1.00269822 53304
