OBJECT_NAME,OBJECT_ID,EPOCH,MEAN_MOTION,ECCENTRICITY,INCLINATION,RA_OF_ASC_NODE,ARG_OF_PERICENTER,MEAN_ANOMALY,EPHEMERIS_TYPE,CLASSIFICATION_TYPE,NORAD_CAT_ID,ELEMENT_SET_NO,REV_AT_EPOCH,BSTAR,MEAN_MOTION_DOT,MEAN_MOTION_DDOT
SES-1,2010-016A,2026-06-07T11:14:09.227040,1.00271962,.0002833,0.0169,316.1077,121.8226,245.4887,0,U,36516,999,5893,0,-.1E-5,0
ASTRA 3B,2010-021A,2026-06-07T06:41:44.493216,1.00273786,.0004457,1.4451,83.6724,350.9397,304.9971,0,U,36581,999,5876,0,.152E-5,0
COMSATBW-2,2010-021B,2026-06-07T06:38:44.780352,1.00269737,.000276,0.0189,27.0090,62.4732,279.0967,0,U,36582,999,5885,0,.102E-5,0
BEIDOU-2 G3,2010-024A,2026-06-07T08:40:25.028256,1.00273080,.0008492,4.4919,61.5565,350.4920,53.5210,0,U,36590,999,5867,0,-.122E-5,0
BADR-5,2010-025A,2026-06-07T06:43:44.302368,1.00277778,.00034,0.0612,116.8842,64.1575,206.1241,0,U,36592,999,5311,0,.168E-5,0
COMS 1,2010-032A,2026-06-03T23:47:39.107040,1.00270643,.0001016,4.7750,75.5286,4.5847,297.3769,0,U,36744,999,5095,0,-.334E-5,0
ARABSAT-5A,2010-032B,2026-06-07T06:43:36.814080,1.00269181,.0005444,0.0706,50.6633,46.6218,289.7936,0,U,36745,999,5854,0,.168E-5,0
ECHOSTAR 15,2010-034A,2026-06-07T11:09:02.219328,1.00271636,.0001864,0.0087,4.8549,71.0372,228.4233,0,U,36792,999,5822,0,.14E-6,0
BEIDOU-2 IGSO-1,2010-036A,2026-06-07T10:31:16.386240,1.00275489,.0059187,54.3007,163.0477,225.1050,133.1630,0,U,36828,999,5799,0,-.47E-6,0
NILESAT 201,2010-037A,2026-06-07T08:15:38.750400,1.00272069,.0004442,0.0161,153.0874,312.5706,267.0130,0,U,36830,999,5827,0,-.43E-6,0
RASCOM-QAF 1R,2010-037B,2026-06-07T08:18:30.974112,1.00270318,.0006741,0.0130,111.7563,326.9774,304.5513,0,U,36831,999,5820,0,.33E-6,0
AEHF-1 (USA 214),2010-039A,2026-06-06T22:10:11.409888,1.00270215,.0004151,8.1929,68.1805,3.9297,185.7061,0,U,36868,999,5355,0,.16E-5,0
XM-5,2010-053A,2026-06-07T09:27:32.120064,1.00269379,.0002975,0.0653,273.2387,279.8470,89.4090,0,U,37185,999,5738,0,-.8E-7,0
BSAT-3B,2010-056B,2026-06-07T10:31:38.850240,1.00273197,.0001311,0.0523,237.6969,304.2532,341.6587,0,U,37207,999,5200,0,-.336E-5,0
BEIDOU-2 G4,2010-057A,2026-06-07T12:20:38.543136,1.00272171,.0004804,3.6223,69.0031,201.6695,330.4228,0,U,37210,999,5719,0,-.98E-6,0
SKYTERRA 1,2010-061A,2026-06-07T07:48:38.531808,1.00270959,.0002816,5.1035,50.8594,20.5142,200.1941,0,U,37218,999,5709,0,-.105E-5,0
HYLAS 1,2010-065A,2026-06-07T01:45:38.608128,1.00272357,.0001125,5.6170,73.1419,315.9463,266.6070,0,U,37237,999,678,0,.103E-5,0
INTELSAT 17 (IS-17),2010-065B,2026-06-07T08:36:21.763008,1.00272296,.0002448,0.0035,326.3974,116.2071,8.2423,0,U,37238,999,5315,0,.13E-6,0
BEIDOU-2 IGSO-2,2010-068A,2026-06-06T17:56:34.315296,1.00287050,.00549834,47.5684,271.9632,212.5902,147.2585,0,U,37256,999,5669,0,-.212E-5,0
EUTELSAT KA-SAT 9A,2010-069A,2026-06-07T08:20:15.808416,1.00269066,.0003927,0.0609,10.6072,116.9409,262.2703,0,U,37258,999,4390,0,.76E-6,0
HISPASAT 30W-5,2010-070A,2026-06-07T10:14:38.474880,1.00270647,.0005201,0.0613,106.2390,352.4195,280.8501,0,U,37264,999,5308,0,-.201E-5,0
KOREASAT 6,2010-070B,2026-06-07T10:58:38.635968,1.00271759,.0002297,0.0279,74.1411,8.9588,137.3159,0,U,37265,999,5667,0,-.97E-6,0
BEIDOU-2 IGSO-3,2011-013A,2026-06-04T15:13:36.073056,1.00271497,.00344466,62.3902,40.2715,185.4993,3.7397,0,U,37384,999,5553,0,-.179E-5,0
INTELSAT 28 (IS-28),2011-016A,2026-06-07T10:23:11.785056,1.00269060,.0003939,1.7801,82.7441,353.9005,303.2941,0,U,37392,999,5318,0,-.21E-5,0
YAHSAT 1A,2011-016B,2026-06-07T05:07:18.624000,1.00268533,.0002975,0.0157,327.7988,121.6939,295.4523,0,U,37393,999,4230,0,0,0
SBIRS GEO-1 (USA 230),2011-019A,2026-06-07T00:13:31.766880,1.00272448,.0002128,4.5147,53.1313,13.0940,244.3704,0,U,37481,999,5529,0,.113E-5,0
TELSTAR 14R,2011-021A,2026-06-07T11:25:00.688224,1.00271810,.0002436,0.0149,47.1902,17.8107,299.1397,0,U,37602,999,5573,0,-.265E-5,0
GSAT-8,2011-022A,2026-06-07T05:08:03.552000,1.00270799,.0002207,2.1044,81.9456,213.0361,92.7290,0,U,37605,999,5311,0,.99E-6,0
ST-2,2011-022B,2026-06-07T10:25:24.447936,1.00271146,.0001851,0.0166,60.6158,31.4120,48.1889,0,U,37606,999,5518,0,-.197E-5,0
ZHONGXING-10,2011-026A,2026-06-07T12:07:27.446592,1.00271145,.0003681,1.0212,84.3137,356.7275,82.2730,0,U,37677,999,5490,0,-.174E-5,0
SES-3,2011-035A,2026-06-07T09:30:54.296928,1.00271143,.0002735,1.3006,83.1967,348.3227,224.0057,0,U,37748,999,5449,0,-.87E-6,0
KAZSAT-2,2011-035B,2026-06-07T10:25:01.983936,1.00269822,.0001282,0.0356,246.0632,255.3594,357.1868,0,U,37749,999,5330,0,-.183E-5,0
